GLOBALSTAR M035 [-]     
1 25851U 99037A   24005.81804913 -.00000045  00000+0  68803-3 0  9991
2 25851  51.9924 153.2607 0013552 199.7244 340.2109 11.04528683 37871
GLOBALSTAR M032 [-]     
1 25852U 99037B   24005.44505089 -.00000013  00000+0  17224-2 0  9998
2 25852  51.9980  15.7771 0008913 355.5331   4.5388 11.19048517 75591
GLOBALSTAR M051 [-]     
1 25853U 99037C   24006.00101359 -.00000042  00000+0  73742-3 0  9994
2 25853  51.9766 235.0646 0002017  22.3615 337.7283 11.42195501 72050
GLOBALSTAR M030 [-]     
1 25854U 99037D   24006.47855260 -.00000084  00000+0 -18894-3 0  9997
2 25854  51.9887  73.5673 0004858 173.7664 186.3214 11.55087410 89165
GLOBALSTAR M048 [-]     
1 25872U 99041A   24005.70864691 -.00000049  00000+0  56632-3 0  9997
2 25872  51.9348 150.3626 0012668 355.0953 106.5097 11.33842571 65039
GLOBALSTAR M026 [-]     
1 25873U 99041B   24005.92474781 -.00000001  00000+0  23404-2 0  9997
2 25873  52.0011 276.5567 0002038  80.3292 359.2698 11.06833716 89994
GLOBALSTAR M043 [-]     
1 25874U 99041C   24005.93052181 -.00000069  00000+0 -31869-4 0  9996
2 25874  51.9375 236.4301 0013539 128.2558 329.0228 11.25673729 63388
GLOBALSTAR M028 [-]     
1 25875U 99041D   24006.16664621 -.00000092  00000+0  54662-4 0  9992
2 25875  51.9647 327.4822 0063886   5.0908 355.0591 12.50547525124148
